start=new Date('2022-02-26T00:00:00.000Z').valueOf();
sats=[{"ELEMENT_SET_NO":"999","FILE":"3323947","APOAPSIS":"548.380","MEAN_MOTION_DDOT":"0.0000000000000","MEAN_MOTION_DOT":"-0.00000703","INCLINATION":"53.0544","RCS_SIZE":"LARGE","SEMIMAJOR_AXIS":"6925.390","NORAD_CAT_ID":"48022","RA_OF_ASC_NODE":"104.5478","LAUNCH_DATE":"2021-03-24","REF_FRAME":"TEME","ECCENTRICITY":"0.00016250","OBJECT_NAME":"STARLINK-2298","OBJECT_TYPE":"PAYLOAD","MEAN_ELEMENT_THEORY":"SGP4","BSTAR":"-0.00002831300000","MEAN_MOTION":"15.06386579","EPHEMERIS_TYPE":"0","COUNTRY_CODE":"US","REV_AT_EPOCH":"5260","EPOCH":"2022-02-25T14:33:50.745312","OBJECT_ID":"2021-024AX","GP_ID":"197031937","CENTER_NAME":"EARTH","ARG_OF_PERICENTER":"52.5019","MEAN_ANOMALY":"307.6117","DECAY_DATE":null,"SITE":"AFETR","CLASSIFICATION_TYPE":"U","PERIOD":"95.593","TLE_LINE1":"1 48022U 21024AX  22056.60683733 -.00000703  00000-0 -28313-4 0  9999","TLE_LINE2":"2 48022  53.0544 104.5478 0001625  52.5019 307.6117 15.06386579 52602","PERIAPSIS":"546.129","TIME_SYSTEM":"UTC"},{"REF_FRAME":"TEME","ECCENTRICITY":"0.00016350","OBJECT_NAME":"STARLINK-2292","NORAD_CAT_ID":"48023","RA_OF_ASC_NODE":"103.5767","LAUNCH_DATE":"2021-03-24","MEAN_MOTION_DDOT":"0.0000000000000","SEMIMAJOR_AXIS":"6925.388","RCS_SIZE":"LARGE","INCLINATION":"53.0551","MEAN_MOTION_DOT":"-0.00001200","ELEMENT_SET_NO":"999","APOAPSIS":"548.385","FILE":"3323947","CENTER_NAME":"EARTH","OBJECT_ID":"2021-024AY","EPOCH":"2022-02-25T19:43:04.031616","GP_ID":"197032187","REV_AT_EPOCH":"5263","EPHEMERIS_TYPE":"0","COUNTRY_CODE":"US","BSTAR":"-0.00006169500000","OBJECT_TYPE":"PAYLOAD","MEAN_ELEMENT_THEORY":"SGP4","MEAN_MOTION":"15.06387196","PERIOD":"95.593","CLASSIFICATION_TYPE":"U","SITE":"AFETR","DECAY_DATE":null,"ARG_OF_PERICENTER":"63.2978","MEAN_ANOMALY":"296.8179","TIME_SYSTEM":"UTC","TLE_LINE2":"2 48023  53.0551 103.5767 0001635  63.2978 296.8179 15.06387196 52631","PERIAPSIS":"546.120","TLE_LINE1":"1 48023U 21024AY  22056.82157444 -.00001200  00000-0 -61695-4 0  9992"},{"TLE_LINE1":"1 48026U 21024BB  22056.86718084  .00000822  00000-0  74080-4 0  9991","TLE_LINE2":"2 48026  53.0522 108.3787 0001592  55.4173 304.6966 15.06403453 52513","PERIAPSIS":"546.100","TIME_SYSTEM":"UTC","ARG_OF_PERICENTER":"55.4173","MEAN_ANOMALY":"304.6966","DECAY_DATE":null,"SITE":"AFETR","CLASSIFICATION_TYPE":"U","PERIOD":"95.592","MEAN_ELEMENT_THEORY":"SGP4","OBJECT_TYPE":"PAYLOAD","BSTAR":"0.00007408000000","MEAN_MOTION":"15.06403453","COUNTRY_CODE":"US","EPHEMERIS_TYPE":"0","REV_AT_EPOCH":"5251","EPOCH":"2022-02-25T20:48:44.424576","OBJECT_ID":"2021-024BB","GP_ID":"197032434","CENTER_NAME":"EARTH","ELEMENT_SET_NO":"999","FILE":"3323947","APOAPSIS":"548.305","MEAN_MOTION_DDOT":"0.0000000000000","MEAN_MOTION_DOT":"0.00000822","INCLINATION":"53.0522","SEMIMAJOR_AXIS":"6925.338","RCS_SIZE":"LARGE","NORAD_CAT_ID":"48026","LAUNCH_DATE":"2021-03-24","RA_OF_ASC_NODE":"108.3787","REF_FRAME":"TEME","ECCENTRICITY":"0.00015920","OBJECT_NAME":"STARLINK-2278"},{"TIME_SYSTEM":"UTC","PERIAPSIS":"546.255","TLE_LINE2":"2 48027  53.0556  83.8577 0001422  63.6472 296.4663 15.06391305 52840","TLE_LINE1":"1 48027U 21024BC  22056.76076021  .00001578  00000-0  12484-3 0  9997","PERIOD":"95.593","CLASSIFICATION_TYPE":"U","SITE":"AFETR","DECAY_DATE":null,"MEAN_ANOMALY":"296.4663","ARG_OF_PERICENTER":"63.6472","CENTER_NAME":"EARTH","GP_ID":"197033189","OBJECT_ID":"2021-024BC","EPOCH":"2022-02-25T18:15:29.682144","REV_AT_EPOCH":"5284","COUNTRY_CODE":"US","EPHEMERIS_TYPE":"0","MEAN_MOTION":"15.06391305","BSTAR":"0.00012484000000","MEAN_ELEMENT_THEORY":"SGP4","OBJECT_TYPE":"PAYLOAD","OBJECT_NAME":"STARLINK-2300","ECCENTRICITY":"0.00014220","REF_FRAME":"TEME","RA_OF_ASC_NODE":"83.8577","LAUNCH_DATE":"2021-03-24","NORAD_CAT_ID":"48027","RCS_SIZE":"LARGE","SEMIMAJOR_AXIS":"6925.375","MEAN_MOTION_DOT":"0.00001578","INCLINATION":"53.0556","MEAN_MOTION_DDOT":"0.0000000000000","APOAPSIS":"548.225","FILE":"3323947","ELEMENT_SET_NO":"999"},{"CENTER_NAME":"EARTH","GP_ID":"197031438","EPOCH":"2022-02-25T22:00:00.999936","OBJECT_ID":"2021-024BD","EPHEMERIS_TYPE":"0","COUNTRY_CODE":"US","REV_AT_EPOCH":"359","MEAN_MOTION":"15.06371659","MEAN_ELEMENT_THEORY":"SGP4","OBJECT_TYPE":"PAYLOAD","BSTAR":"0.00228120000000","ECCENTRICITY":"0.00018640","OBJECT_NAME":"STARLINK-2264","REF_FRAME":"TEME","LAUNCH_DATE":"2021-03-24","RA_OF_ASC_NODE":"38.1593","NORAD_CAT_ID":"48028","INCLINATION":"53.0568","MEAN_MOTION_DOT":"0.00033835","SEMIMAJOR_AXIS":"6925.435","RCS_SIZE":"LARGE","MEAN_MOTION_DDOT":"0.0000000000000","APOAPSIS":"548.591","FILE":"3323947","ELEMENT_SET_NO":"999","TIME_SYSTEM":"UTC","PERIAPSIS":"546.010","TLE_LINE2":"2 48028  53.0568  38.1593 0001864  60.9508 357.8384 15.06371659  3595","TLE_LINE1":"1 48028U 21024BD  22056.91667824  .00033835  00000-0  22812-2 0  9998","PERIOD":"95.594","SITE":"AFETR","CLASSIFICATION_TYPE":"U","DECAY_DATE":null,"MEAN_ANOMALY":"357.8384","ARG_OF_PERICENTER":"60.9508"},{"PERIAPSIS":"545.881","TLE_LINE2":"2 48029  53.0534 103.3937 0001903  58.4311 301.6863 15.06404796 52642","TLE_LINE1":"1 48029U 21024BE  22056.86580748  .00003806  00000-0  27421-3 0  9999","TIME_SYSTEM":"UTC","DECAY_DATE":null,"MEAN_ANOMALY":"301.6863","ARG_OF_PERICENTER":"58.4311","PERIOD":"95.592","SITE":"AFETR","CLASSIFICATION_TYPE":"U","EPHEMERIS_TYPE":"0","COUNTRY_CODE":"US","REV_AT_EPOCH":"5264","MEAN_MOTION":"15.06404796","MEAN_ELEMENT_THEORY":"SGP4","OBJECT_TYPE":"PAYLOAD","BSTAR":"0.00027421000000","CENTER_NAME":"EARTH","GP_ID":"197031688","EPOCH":"2022-02-25T20:46:45.766272","OBJECT_ID":"2021-024BE","MEAN_MOTION_DOT":"0.00003806","INCLINATION":"53.0534","SEMIMAJOR_AXIS":"6925.334","RCS_SIZE":"LARGE","MEAN_MOTION_DDOT":"0.0000000000000","APOAPSIS":"548.517","FILE":"3323947","ELEMENT_SET_NO":"999","ECCENTRICITY":"0.00019030","OBJECT_NAME":"STARLINK-2299","REF_FRAME":"TEME","RA_OF_ASC_NODE":"103.3937","LAUNCH_DATE":"2021-03-24","NORAD_CAT_ID":"48029"},{"TIME_SYSTEM":"UTC","PERIAPSIS":"546.025","TLE_LINE2":"2 48030  53.0549 109.7368 0001719  62.2963 297.8200 15.06399472 52464","TLE_LINE1":"1 48030U 21024BF  22056.56124671  .00001465  00000-0  11723-3 0  9994","PERIOD":"95.592","CLASSIFICATION_TYPE":"U","SITE":"AFETR","DECAY_DATE":null,"MEAN_ANOMALY":"297.8200","ARG_OF_PERICENTER":"62.2963","CENTER_NAME":"EARTH","GP_ID":"197032934","OBJECT_ID":"2021-024BF","EPOCH":"2022-02-25T13:28:11.715744","REV_AT_EPOCH":"5246","EPHEMERIS_TYPE":"0","COUNTRY_CODE":"US","MEAN_MOTION":"15.06399472","BSTAR":"0.00011723000000","MEAN_ELEMENT_THEORY":"SGP4","OBJECT_TYPE":"PAYLOAD","OBJECT_NAME":"STARLINK-2268","ECCENTRICITY":"0.00017190","REF_FRAME":"TEME","LAUNCH_DATE":"2021-03-24","RA_OF_ASC_NODE":"109.7368","NORAD_CAT_ID":"48030","SEMIMAJOR_AXIS":"6925.350","RCS_SIZE":"LARGE","MEAN_MOTION_DOT":"0.00001465","INCLINATION":"53.0549","MEAN_MOTION_DDOT":"0.0000000000000","APOAPSIS":"548.406","FILE":"3323947","ELEMENT_SET_NO":"999"},{"REV_AT_EPOCH":"359","COUNTRY_CODE":"US","EPHEMERIS_TYPE":"0","BSTAR":"-0.00090782000000","MEAN_ELEMENT_THEORY":"SGP4","OBJECT_TYPE":"PAYLOAD","MEAN_MOTION":"15.06403919","CENTER_NAME":"EARTH","OBJECT_ID":"2021-024BG","EPOCH":"2022-02-25T22:00:00.999936","GP_ID":"197032690","MEAN_MOTION_DDOT":"0.0000000000000","SEMIMAJOR_AXIS":"6925.337","RCS_SIZE":"MEDIUM","INCLINATION":"53.0521","MEAN_MOTION_DOT":"-0.00013779","ELEMENT_SET_NO":"999","FILE":"3323947","APOAPSIS":"548.536","REF_FRAME":"TEME","ECCENTRICITY":"0.00019270","OBJECT_NAME":"STARLINK-2267","NORAD_CAT_ID":"48031","LAUNCH_DATE":"2021-03-24","RA_OF_ASC_NODE":"353.1453","TLE_LINE2":"2 48031  53.0521 353.1453 0001927  54.0351 227.1431 15.06403919  3590","PERIAPSIS":"545.867","TLE_LINE1":"1 48031U 21024BG  22056.91667824 -.00013779  00000-0 -90782-3 0  9991","TIME_SYSTEM":"UTC","DECAY_DATE":null,"ARG_OF_PERICENTER":"54.0351","MEAN_ANOMALY":"227.1431","PERIOD":"95.592","CLASSIFICATION_TYPE":"U","SITE":"AFETR"},{"ELEMENT_SET_NO":"999","APOAPSIS":"548.400","FILE":"3323947","MEAN_MOTION_DDOT":"0.0000000000000","SEMIMAJOR_AXIS":"6925.378","RCS_SIZE":"LARGE","MEAN_MOTION_DOT":"-0.00001085","INCLINATION":"53.0620","NORAD_CAT_ID":"48033","RA_OF_ASC_NODE":"104.8589","LAUNCH_DATE":"2021-03-24","REF_FRAME":"TEME","ECCENTRICITY":"0.00016720","OBJECT_NAME":"STARLINK-2286","BSTAR":"-0.00005396300000","MEAN_ELEMENT_THEORY":"SGP4","OBJECT_TYPE":"PAYLOAD","MEAN_MOTION":"15.06390540","REV_AT_EPOCH":"5259","EPHEMERIS_TYPE":"0","COUNTRY_CODE":"US","OBJECT_ID":"2021-024BJ","EPOCH":"2022-02-25T12:33:08.380224","GP_ID":"197031938","CENTER_NAME":"EARTH","ARG_OF_PERICENTER":"65.5788","MEAN_ANOMALY":"294.5376","DECAY_DATE":null,"CLASSIFICATION_TYPE":"U","SITE":"AFETR","PERIOD":"95.593","TLE_LINE1":"1 48033U 21024BJ  22056.52301366 -.00001085  00000-0 -53963-4 0  9994","TLE_LINE2":"2 48033  53.0620 104.8589 0001672  65.5788 294.5376 15.06390540 52596","PERIAPSIS":"546.085","TIME_SYSTEM":"UTC"},{"PERIAPSIS":"545.942","TLE_LINE2":"2 48034  53.0533 104.8423 0001862  58.7816 301.3355 15.06394272 52066","TLE_LINE1":"1 48034U 21024BK  22056.54144618 -.00000008  00000-0  18348-4 0  9993","TIME_SYSTEM":"UTC","DECAY_DATE":null,"MEAN_ANOMALY":"301.3355","ARG_OF_PERICENTER":"58.7816","PERIOD":"95.593","SITE":"AFETR","CLASSIFICATION_TYPE":"U","EPHEMERIS_TYPE":"0","COUNTRY_CODE":"US","REV_AT_EPOCH":"5206","MEAN_MOTION":"15.06394272","MEAN_ELEMENT_THEORY":"SGP4","OBJECT_TYPE":"PAYLOAD","BSTAR":"0.00001834800000","CENTER_NAME":"EARTH","GP_ID":"196995103","EPOCH":"2022-02-25T12:59:40.949952","OBJECT_ID":"2021-024BK","MEAN_MOTION_DOT":"-0.00000008","INCLINATION":"53.0533","SEMIMAJOR_AXIS":"6925.366","RCS_SIZE":"LARGE","MEAN_MOTION_DDOT":"0.0000000000000","FILE":"3323287","APOAPSIS":"548.521","ELEMENT_SET_NO":"999","ECCENTRICITY":"0.00018620","OBJECT_NAME":"STARLINK-2288","REF_FRAME":"TEME","RA_OF_ASC_NODE":"104.8423","LAUNCH_DATE":"2021-03-24","NORAD_CAT_ID":"48034"}];
